{
  "norad_id": 66994,
  "name": "THE ARAB SATELLITE 813",
  "history": [
    {
      "epoch": "2026-04-11T11:06:20.426688Z",
      "apogee_km": 558.1291407466833,
      "perigee_km": 538.9588584122475,
      "latitude_deg": 1.4988559299721152e-05,
      "longitude_deg": 171.59851500223672,
      "height_km": 558.9059364481082,
      "semi_major_axis_km": 6926.680999579466,
      "eccentricity": 0.0013838,
      "inclination_deg": 97.6351,
      "raan_deg": 177.8655,
      "arg_perigee_deg": 220.5057,
      "mean_anomaly_deg": 139.5141,
      "mean_motion_rev_day": 15.05965356
    },
    {
      "epoch": "2026-04-13T04:34:00.505632Z",
      "apogee_km": 558.2420756690435,
      "perigee_km": 538.793967831376,
      "latitude_deg": -1.8485887515984905e-05,
      "longitude_deg": -90.31022559848779,
      "height_km": 559.6071123407129,
      "semi_major_axis_km": 6926.65502175021,
      "eccentricity": 0.00140386,
      "inclination_deg": 97.635,
      "raan_deg": 179.5765,
      "arg_perigee_deg": 214.4851,
      "mean_anomaly_deg": 145.5466,
      "mean_motion_rev_day": 15.05973828
    },
    {
      "epoch": "2026-04-14T10:51:54.809280Z",
      "apogee_km": 558.3514183822736,
      "perigee_km": 538.6581446004784,
      "latitude_deg": -1.1377384108481168e-05,
      "longitude_deg": 175.21939761458538,
      "height_km": 560.0650769950007,
      "semi_major_axis_km": 6926.641781491376,
      "eccentricity": 0.00142156,
      "inclination_deg": 97.6347,
      "raan_deg": 180.8267,
      "arg_perigee_deg": 210.4709,
      "mean_anomaly_deg": 149.5693,
      "mean_motion_rev_day": 15.05978146
    },
    {
      "epoch": "2026-04-15T17:09:48.832128Z",
      "apogee_km": 558.453974257448,
      "perigee_km": 538.5302183248759,
      "latitude_deg": 7.729516398167496e-05,
      "longitude_deg": 80.7501842551631,
      "height_km": 560.4873461829968,
      "semi_major_axis_km": 6926.629096291162,
      "eccentricity": 0.0014382,
      "inclination_deg": 97.6344,
      "raan_deg": 182.0769,
      "arg_perigee_deg": 206.4129,
      "mean_anomaly_deg": 153.6367,
      "mean_motion_rev_day": 15.05982283
    },
    {
      "epoch": "2026-04-16T10:42:16.888320Z",
      "apogee_km": 558.5024295149387,
      "perigee_km": 538.4651009652516,
      "latitude_deg": 1.2990205175599112e-05,
      "longitude_deg": 177.63660496458044,
      "height_km": 560.7081486468085,
      "semi_major_axis_km": 6926.620765240094,
      "eccentricity": 0.0014464,
      "inclination_deg": 97.6342,
      "raan_deg": 182.8006,
      "arg_perigee_deg": 204.016,
      "mean_anomaly_deg": 156.0394,
      "mean_motion_rev_day": 15.05985
    },
    {
      "epoch": "2026-04-17T17:00:10.548288Z",
      "apogee_km": 558.5707103532814,
      "perigee_km": 538.3617912408199,
      "latitude_deg": -5.824806950788974e-05,
      "longitude_deg": 83.16892867149036,
      "height_km": 561.0397232215814,
      "semi_major_axis_km": 6926.60325079705,
      "eccentricity": 0.00145879,
      "inclination_deg": 97.6339,
      "raan_deg": 184.0508,
      "arg_perigee_deg": 199.9012,
      "mean_anomaly_deg": 160.1647,
      "mean_motion_rev_day": 15.05990712
    },
    {
      "epoch": "2026-04-18T10:32:38.277888Z",
      "apogee_km": 558.6014405567912,
      "perigee_km": 538.308603909255,
      "latitude_deg": -2.5096242336217996e-05,
      "longitude_deg": -179.94320016464815,
      "height_km": 561.202521533683,
      "semi_major_axis_km": 6926.592022233022,
      "eccentricity": 0.00146485,
      "inclination_deg": 97.6337,
      "raan_deg": 184.7746,
      "arg_perigee_deg": 197.5251,
      "mean_anomaly_deg": 162.5472,
      "mean_motion_rev_day": 15.05994374
    },
    {
      "epoch": "2026-04-19T10:27:48.386880Z",
      "apogee_km": 558.6479346214683,
      "perigee_km": 538.2135900031608,
      "latitude_deg": 1.095673401686804e-05,
      "longitude_deg": -178.73076424409663,
      "height_km": 561.4081219234484,
      "semi_major_axis_km": 6926.567762312315,
      "eccentricity": 0.00147507,
      "inclination_deg": 97.6336,
      "raan_deg": 185.7615,
      "arg_perigee_deg": 194.1766,
      "mean_anomaly_deg": 165.9049,
      "mean_motion_rev_day": 15.06002286
    },
    {
      "epoch": "2026-04-20T04:00:15.579072Z",
      "apogee_km": 558.6802099706529,
      "perigee_km": 538.1564109923784,
      "latitude_deg": -5.4306019488708375e-05,
      "longitude_deg": -81.84063604346015,
      "height_km": 561.5363315764831,
      "semi_major_axis_km": 6926.555310481515,
      "eccentricity": 0.00148153,
      "inclination_deg": 97.6335,
      "raan_deg": 186.4853,
      "arg_perigee_deg": 191.7397,
      "mean_anomaly_deg": 168.3486,
      "mean_motion_rev_day": 15.06006347
    },
    {
      "epoch": "2026-04-21T18:16:30.207936Z",
      "apogee_km": 558.7373263766458,
      "perigee_km": 538.0062855204415,
      "latitude_deg": -2.0248810325357402e-05,
      "longitude_deg": 64.10597893856739,
      "height_km": 561.7407842580479,
      "semi_major_axis_km": 6926.508805948543,
      "eccentricity": 0.0014965,
      "inclination_deg": 97.6334,
      "raan_deg": 188.0646,
      "arg_perigee_deg": 186.4621,
      "mean_anomaly_deg": 173.6415,
      "mean_motion_rev_day": 15.06021514
    },
    {
      "epoch": "2026-04-22T03:50:33.655200Z",
      "apogee_km": 558.7480131293132,
      "perigee_km": 537.9736452501365,
      "latitude_deg": -1.045553630238619e-05,
      "longitude_deg": -79.40651534584067,
      "height_km": 561.775031946065,
      "semi_major_axis_km": 6926.497829189724,
      "eccentricity": 0.00149963,
      "inclination_deg": 97.6334,
      "raan_deg": 188.4594,
      "arg_perigee_deg": 185.1467,
      "mean_anomaly_deg": 174.9608,
      "mean_motion_rev_day": 15.06025094
    },
    {
      "epoch": "2026-04-23T11:44:04.609536Z",
      "apogee_km": 558.79399374692,
      "perigee_km": 537.8606946765558,
      "latitude_deg": -5.7938486144354556e-05,
      "longitude_deg": 162.2209565768083,
      "height_km": 561.8609325959411,
      "semi_major_axis_km": 6926.464344211738,
      "eccentricity": 0.00151111,
      "inclination_deg": 97.6338,
      "raan_deg": 189.7756,
      "arg_perigee_deg": 180.4259,
      "mean_anomaly_deg": 179.6957,
      "mean_motion_rev_day": 15.06036015
    },
    {
      "epoch": "2026-04-24T16:26:13.757280Z",
      "apogee_km": 558.8376206334178,
      "perigee_km": 537.7549430102099,
      "latitude_deg": -1.3649640326818889e-05,
      "longitude_deg": 91.68856207302076,
      "height_km": 561.8791388354916,
      "semi_major_axis_km": 6926.433281821814,
      "eccentricity": 0.0015219,
      "inclination_deg": 97.6341,
      "raan_deg": 190.9601,
      "arg_perigee_deg": 176.1362,
      "mean_anomaly_deg": 183.9985,
      "mean_motion_rev_day": 15.06046146
    },
    {
      "epoch": "2026-04-25T17:57:01.233216Z",
      "apogee_km": 558.869169456254,
      "perigee_km": 537.6536111866999,
      "latitude_deg": 6.325435935751427e-05,
      "longitude_deg": 68.9958457042165,
      "height_km": 561.8360286422335,
      "semi_major_axis_km": 6926.398390321477,
      "eccentricity": 0.0015315,
      "inclination_deg": 97.6344,
      "raan_deg": 192.013,
      "arg_perigee_deg": 172.2518,
      "mean_anomaly_deg": 187.8949,
      "mean_motion_rev_day": 15.06057526
    },
    {
      "epoch": "2026-04-26T17:52:07.563072Z",
      "apogee_km": 558.8998068215351,
      "perigee_km": 537.5458394867501,
      "latitude_deg": 3.948392417163849e-05,
      "longitude_deg": 70.22438006304259,
      "height_km": 561.7565006751832,
      "semi_major_axis_km": 6926.359823154142,
      "eccentricity": 0.0015415,
      "inclination_deg": 97.6345,
      "raan_deg": 193.0002,
      "arg_perigee_deg": 168.7463,
      "mean_anomaly_deg": 191.4112,
      "mean_motion_rev_day": 15.06070105
    },
    {
      "epoch": "2026-04-27T17:47:13.276032Z",
      "apogee_km": 558.9479676322007,
      "perigee_km": 537.4389410393069,
      "latitude_deg": -9.34649853110427e-06,
      "longitude_deg": 71.45539555227163,
      "height_km": 561.650294974526,
      "semi_major_axis_km": 6926.3304543357535,
      "eccentricity": 0.0015527,
      "inclination_deg": 97.6346,
      "raan_deg": 193.9873,
      "arg_perigee_deg": 165.1799,
      "mean_anomaly_deg": 194.9886,
      "mean_motion_rev_day": 15.06079684
    },
    {
      "epoch": "2026-04-28T19:17:58.743168Z",
      "apogee_km": 558.993625100522,
      "perigee_km": 537.3323145748527,
      "latitude_deg": -3.807937140675015e-06,
      "longitude_deg": 48.7707827230612,
      "height_km": 561.4972398658583,
      "semi_major_axis_km": 6926.299969837687,
      "eccentricity": 0.0015637,
      "inclination_deg": 97.6346,
      "raan_deg": 195.0399,
      "arg_perigee_deg": 161.5879,
      "mean_anomaly_deg": 198.5917,
      "mean_motion_rev_day": 15.06089627
    },
    {
      "epoch": "2026-04-29T19:13:03.357984Z",
      "apogee_km": 559.0273058914709,
      "perigee_km": 537.2414119591067,
      "latitude_deg": 5.89280437292401e-05,
      "longitude_deg": 50.006071059091155,
      "height_km": 561.3091996613522,
      "semi_major_axis_km": 6926.271358925288,
      "eccentricity": 0.0015727,
      "inclination_deg": 97.6344,
      "raan_deg": 196.0267,
      "arg_perigee_deg": 158.2688,
      "mean_anomaly_deg": 201.921,
      "mean_motion_rev_day": 15.06098959
    },
    {
      "epoch": "2026-04-30T04:47:05.042688Z",
      "apogee_km": 559.0422927616019,
      "perigee_km": 537.2054545296078,
      "latitude_deg": -6.726824712487133e-05,
      "longitude_deg": -93.49904001894986,
      "height_km": 561.2278168015948,
      "semi_major_axis_km": 6926.260873645605,
      "eccentricity": 0.00157638,
      "inclination_deg": 97.6344,
      "raan_deg": 196.4215,
      "arg_perigee_deg": 156.9761,
      "mean_anomaly_deg": 203.2175,
      "mean_motion_rev_day": 15.06102379
    }
  ]
}